{
  "type": "FeatureCollection",
  "features": [
    {
      "type": "Feature",
      "properties": {
        "norad_id": 30342,
        "name": "FENGYUN 1C DEB",
        "group": "fengyun-1c-debris",
        "lat": 12.749631362811103,
        "lon": -0.540158736746945,
        "alt_km": 921.1266897269679,
        "timestamp": "2025-12-22T20:43:46.124314+00:00",
        "meta_object_name": "FENGYUN 1C DEB",
        "meta_object_id": "1999-025ABD",
        "meta_epoch": "2025-12-22T11:30:11.530368",
        "meta_mean_motion": 13.80057422,
        "meta_eccentricity": 0.01682766,
        "meta_inclination": 100.1958,
        "meta_ra_of_asc_node": 176.7121,
        "meta_arg_of_pericenter": 97.6593,
        "meta_mean_anomaly": 318.5342,
        "meta_ephemeris_type": 0,
        "meta_classification_type": "U",
        "meta_norad_cat_id": 30342,
        "meta_element_set_no": 999,
        "meta_rev_at_epoch": 95023,
        "meta_bstar": 0.00057024996,
        "meta_mean_motion_dot": 6.1e-06,
        "meta_mean_motion_ddot": 0,
        "tle_line1": "1 30342U 99025ABD 25356.47930012  .00000610  00000+0  57025-3 0  9992",
        "tle_line2": "2 30342 100.1958 176.7121 0168276  97.6593 318.5342 13.80057422950239"
      },
      "geometry": {
        "type": "Point",
        "coordinates": [
          -0.540158736746945,
          12.749631362811103
        ]
      }
    },
    {
      "type": "Feature",
      "properties": {
        "norad_id": 30344,
        "name": "FENGYUN 1C DEB",
        "group": "fengyun-1c-debris",
        "lat": -15.554312302015802,
        "lon": 81.90020934491959,
        "alt_km": 725.6711343076877,
        "timestamp": "2025-12-22T20:43:46.124324+00:00",
        "meta_object_name": "FENGYUN 1C DEB",
        "meta_object_id": "1999-025ABF",
        "meta_epoch": "2025-12-22T04:23:57.468192",
        "meta_mean_motion": 14.51913906,
        "meta_eccentricity": 0.00069501,
        "meta_inclination": 98.8197,
        "meta_ra_of_asc_node": 78.7093,
        "meta_arg_of_pericenter": 95.065,
        "meta_mean_anomaly": 294.921,
        "meta_ephemeris_type": 0,
        "meta_classification_type": "U",
        "meta_norad_cat_id": 30344,
        "meta_element_set_no": 999,
        "meta_rev_at_epoch": 98214,
        "meta_bstar": 0.0025025344,
        "meta_mean_motion_dot": 0.00010059,
        "meta_mean_motion_ddot": 0,
        "tle_line1": "1 30344U 99025ABF 25356.18330403  .00010059  00000+0  25025-2 0  9992",
        "tle_line2": "2 30344  98.8197  78.7093 0006950  95.0650 294.9210 14.51913906982147"
      },
      "geometry": {
        "type": "Point",
        "coordinates": [
          81.90020934491959,
          -15.554312302015802
        ]
      }
    },
    {
      "type": "Feature",
      "properties": {
        "norad_id": 30345,
        "name": "FENGYUN 1C DEB",
        "group": "fengyun-1c-debris",
        "lat": 21.65798381922668,
        "lon": 53.106307895208474,
        "alt_km": 764.9065213572867,
        "timestamp": "2025-12-22T20:43:46.124334+00:00",
        "meta_object_name": "FENGYUN 1C DEB",
        "meta_object_id": "1999-025ABG",
        "meta_epoch": "2025-12-20T15:19:44.365152",
        "meta_mean_motion": 14.41752062,
        "meta_eccentricity": 0.0017866,
        "meta_inclination": 98.9214,
        "meta_ra_of_asc_node": 54.3593,
        "meta_arg_of_pericenter": 219.8892,
        "meta_mean_anomaly": 140.0984,
        "meta_ephemeris_type": 0,
        "meta_classification_type": "U",
        "meta_norad_cat_id": 30345,
        "meta_element_set_no": 999,
        "meta_rev_at_epoch": 97887,
        "meta_bstar": 0.0012774,
        "meta_mean_motion_dot": 4.131e-05,
        "meta_mean_motion_ddot": 0,
        "tle_line1": "1 30345U 99025ABG 25354.63870793  .00004131  00000+0  12774-2 0  9993",
        "tle_line2": "2 30345  98.9214  54.3593 0017866 219.8892 140.0984 14.41752062978873"
      },
      "geometry": {
        "type": "Point",
        "coordinates": [
          53.106307895208474,
          21.65798381922668
        ]
      }
    },
    {
      "type": "Feature",
      "properties": {
        "norad_id": 30346,
        "name": "FENGYUN 1C DEB",
        "group": "fengyun-1c-debris",
        "lat": 8.934970955593576,
        "lon": -84.84937723881309,
        "alt_km": 819.4979664369857,
        "timestamp": "2025-12-22T20:43:46.124344+00:00",
        "meta_object_name": "FENGYUN 1C DEB",
        "meta_object_id": "1999-025ABH",
        "meta_epoch": "2025-12-21T05:40:04.287072",
        "meta_mean_motion": 14.33971419,
        "meta_eccentricity": 0.0055053,
        "meta_inclination": 98.8084,
        "meta_ra_of_asc_node": 92.0966,
        "meta_arg_of_pericenter": 358.3137,
        "meta_mean_anomaly": 55.2572,
        "meta_ephemeris_type": 0,
        "meta_classification_type": "U",
        "meta_norad_cat_id": 30346,
        "meta_element_set_no": 999,
        "meta_rev_at_epoch": 97535,
        "meta_bstar": 0.0013865,
        "meta_mean_motion_dot": 3.89e-05,
        "meta_mean_motion_ddot": 0,
        "tle_line1": "1 30346U 99025ABH 25355.23616073  .00003890  00000+0  13865-2 0  9993",
        "tle_line2": "2 30346  98.8084  92.0966 0055053 358.3137  55.2572 14.33971419975352"
      },
      "geometry": {
        "type": "Point",
        "coordinates": [
          -84.84937723881309,
          8.934970955593576
        ]
      }
    },
    {
      "type": "Feature",
      "properties": {
        "norad_id": 30347,
        "name": "FENGYUN 1C DEB",
        "group": "fengyun-1c-debris",
        "lat": 35.272658044827295,
        "lon": 5.76791447318251,
        "alt_km": 997.9336298721028,
        "timestamp": "2025-12-22T20:43:46.124354+00:00",
        "meta_object_name": "FENGYUN 1C DEB",
        "meta_object_id": "1999-025ABJ",
        "meta_epoch": "2025-12-22T11:40:42.994272",
        "meta_mean_motion": 13.92773094,
        "meta_eccentricity": 0.01501796,
        "meta_inclination": 98.3766,
        "meta_ra_of_asc_node": 179.4444,
        "meta_arg_of_pericenter": 6.6858,
        "meta_mean_anomaly": 46.5436,
        "meta_ephemeris_type": 0,
        "meta_classification_type": "U",
        "meta_norad_cat_id": 30347,
        "meta_element_set_no": 999,
        "meta_rev_at_epoch": 96096,
        "meta_bstar": 0.00010777693,
        "meta_mean_motion_dot": 1.15e-06,
        "meta_mean_motion_ddot": 0,
        "tle_line1": "1 30347U 99025ABJ 25356.48660873  .00000115  00000+0  10778-3 0  9997",
        "tle_line2": "2 30347  98.3766 179.4444 0150179   6.6858  46.5436 13.92773094960960"
      },
      "geometry": {
        "type": "Point",
        "coordinates": [
          5.76791447318251,
          35.272658044827295
        ]
      }
    },
    {
      "type": "Feature",
      "properties": {
        "norad_id": 30348,
        "name": "FENGYUN 1C DEB",
        "group": "fengyun-1c-debris",
        "lat": 31.52493916181227,
        "lon": -82.61988657137798,
        "alt_km": 784.4153526252339,
        "timestamp": "2025-12-22T20:43:46.124364+00:00",
        "meta_object_name": "FENGYUN 1C DEB",
        "meta_object_id": "1999-025ABK",
        "meta_epoch": "2025-12-21T17:59:03.053760",
        "meta_mean_motion": 14.35186133,
        "meta_eccentricity": 0.00171588,
        "meta_inclination": 98.8624,
        "meta_ra_of_asc_node": 90.7445,
        "meta_arg_of_pericenter": 346.8459,
        "meta_mean_anomaly": 166.6401,
        "meta_ephemeris_type": 0,
        "meta_classification_type": "U",
        "meta_norad_cat_id": 30348,
        "meta_element_set_no": 999,
        "meta_rev_at_epoch": 97663,
        "meta_bstar": 0.0014584422,
        "meta_mean_motion_dot": 4.131e-05,
        "meta_mean_motion_ddot": 0,
        "tle_line1": "1 30348U 99025ABK 25355.74934090  .00004131  00000+0  14584-2 0  9991",
        "tle_line2": "2 30348  98.8624  90.7445 0017158 346.8459 166.6401 14.35186133976637"
      },
      "geometry": {
        "type": "Point",
        "coordinates": [
          -82.61988657137798,
          31.52493916181227
        ]
      }
    },
    {
      "type": "Feature",
      "properties": {
        "norad_id": 30349,
        "name": "FENGYUN 1C DEB",
        "group": "fengyun-1c-debris",
        "lat": -29.049301834674267,
        "lon": -36.32198080275819,
        "alt_km": 798.3996879135311,
        "timestamp": "2025-12-22T20:43:46.124374+00:00",
        "meta_object_name": "FENGYUN 1C DEB",
        "meta_object_id": "1999-025ABL",
        "meta_epoch": "2025-12-21T19:38:26.577024",
        "meta_mean_motion": 14.11168402,
        "meta_eccentricity": 0.00890819,
        "meta_inclination": 98.5852,
        "meta_ra_of_asc_node": 317.8652,
        "meta_arg_of_pericenter": 346.8531,
        "meta_mean_anomaly": 76.3714,
        "meta_ephemeris_type": 0,
        "meta_classification_type": "U",
        "meta_norad_cat_id": 30349,
        "meta_element_set_no": 999,
        "meta_rev_at_epoch": 96359,
        "meta_bstar": 0.0016065558,
        "meta_mean_motion_dot": 2.964e-05,
        "meta_mean_motion_ddot": 0,
        "tle_line1": "1 30349U 99025ABL 25355.81836316  .00002964  00000+0  16066-2 0  9991",
        "tle_line2": "2 30349  98.5852 317.8652 0089081 346.8531  76.3714 14.11168402963594"
      },
      "geometry": {
        "type": "Point",
        "coordinates": [
          -36.32198080275819,
          -29.049301834674267
        ]
      }
    }
  ]
}